{
  "norad_id": 51108,
  "name": "STARLINK-3362",
  "history": [
    {
      "epoch": "2026-03-28T17:18:12.608928Z",
      "apogee_km": 540.6992473252367,
      "perigee_km": 538.7497939487203,
      "latitude_deg": 3.4820923149927644e-05,
      "longitude_deg": 117.99212323981332,
      "height_km": 540.6207326665515,
      "semi_major_axis_km": 6917.861520636978,
      "eccentricity": 0.0001409,
      "inclination_deg": 53.2154,
      "raan_deg": 203.682,
      "arg_perigee_deg": 90.0464,
      "mean_anomaly_deg": 270.069,
      "mean_motion_rev_day": 15.08846173
    }
  ]
}