{"fetched_at":"2026-03-29T16:36:15Z","count":15609,"tles":[{"name":"STARLINK-3362","line1":"1 51108U 22005E   26087.72097927  .00001406  00000+0  10642-3 0  9996","line2":"2 51108  53.2154 203.6820 0001409  90.0464 270.0690 15.08846173231750","category":"Starlink"}]}